[{"OBJECT_NAME":"ICEYE-X21","OBJECT_ID":"2023-001AS","EPOCH":"2026-03-09T21:59:09.131424","MEAN_MOTION":15.76746514,"ECCENTRICITY":0.00038894,"INCLINATION":97.3381,"RA_OF_ASC_NODE":147.8147,"ARG_OF_PERICENTER":74.7456,"MEAN_ANOMALY":285.424,"EPHEMERIS_TYPE":0,"CLASSIFICATION_TYPE":"U","NORAD_CAT_ID":55049,"ELEMENT_SET_NO":999,"REV_AT_EPOCH":17785,"BSTAR":0.00056259315,"MEAN_MOTION_DOT":0.00090659,"MEAN_MOTION_DDOT":0},{"OBJECT_NAME":"STARLINK-36733","OBJECT_ID":"2026-032Q","EPOCH":"2026-03-09T22:00:01.999584","MEAN_MOTION":15.75130561,"ECCENTRICITY":0.00016858,"INCLINATION":97.2842,"RA_OF_ASC_NODE":255.5043,"ARG_OF_PERICENTER":111.2965,"MEAN_ANOMALY":301.4343,"EPHEMERIS_TYPE":0,"CLASSIFICATION_TYPE":"U","NORAD_CAT_ID":67811,"ELEMENT_SET_NO":999,"REV_AT_EPOCH":481,"BSTAR":0.00097807441,"MEAN_MOTION_DOT":0.00147931,"MEAN_MOTION_DDOT":0}]
